[{"OBJECT_NAME":"SAUDISAT 5B","OBJECT_ID":"2018-102C","EPOCH":"2026-03-09T22:59:17.457216","MEAN_MOTION":15.27248504,"ECCENTRICITY":0.00120577,"INCLINATION":97.3281,"RA_OF_ASC_NODE":135.3629,"ARG_OF_PERICENTER":124.0958,"MEAN_ANOMALY":236.1427,"EPHEMERIS_TYPE":0,"CLASSIFICATION_TYPE":"U","NORAD_CAT_ID":43833,"ELEMENT_SET_NO":999,"REV_AT_EPOCH":40064,"BSTAR":0.00024926623,"MEAN_MOTION_DOT":6.596e-5,"MEAN_MOTION_DDOT":0},{"OBJECT_NAME":"STARLINK-32647","OBJECT_ID":"2024-229J","EPOCH":"2026-03-09T21:47:24.710496","MEAN_MOTION":15.27594824,"ECCENTRICITY":0.0001627,"INCLINATION":42.9992,"RA_OF_ASC_NODE":269.5754,"ARG_OF_PERICENTER":275.0124,"MEAN_ANOMALY":85.0542,"EPHEMERIS_TYPE":0,"CLASSIFICATION_TYPE":"U","NORAD_CAT_ID":62200,"ELEMENT_SET_NO":999,"REV_AT_EPOCH":7059,"BSTAR":0.00089964588,"MEAN_MOTION_DOT":0.00024588,"MEAN_MOTION_DDOT":0}]
